college_code,Institute Name,Institute Address,Region,District,Status,Autonomy Status,Minority Status
01002,"Government College of Engineering, Amravati","VMV Road, Near Kathora Naka,  Amravati",Amravati,Amravati,Government,Autonomous,Non-Minority
01005,"Sant Gadge Baba Amravati University,Amravati","SGB Amravati University, Near Tapowan, Amravati",Amravati,Amravati,University Department,Non-Autonomous,Non-Minority
01012,"Government College of Engineering,Yavatmal","Post Box N. 24, Dhamangaon Road, Yavatmal",Amravati,Yavatmal,Government,Non-Autonomous,Non-Minority
01101,"Shri Sant Gajanan Maharaj College of Engineering,Shegaon","S.S.G.M.C.E Campus, Khamgaon Road, Shegaon Dist. Buldhana",Amravati,Buldhana,Un-Aided,Non-Autonomous,Non-Minority
01105,"Prof. Ram Meghe Institute of Technology & Research, Amravati","Anjangaon Bari Road, Badnera,  Amravati",Amravati,Amravati,Un-Aided,Autonomous,Non-Minority
01107,"P. R. Pote Patil College of Engineering & Management, Amravati","Shri Gajanan Township ,Pote Estate, Kathora Road, Amravati",Amravati,Amravati,Un-Aided,Autonomous,Non-Minority
01114,"Sipna Shikshan Prasarak Mandal College of Engineering & Technology, Amravati","Sipna campus, Infront of Nemani Godown, Badnera Rd., Amravati",Amravati,Amravati,Un-Aided,Autonomous,Non-Minority
01116,"Shri Shivaji Education Society's College of Engineering and Technology, Akola","Babhulgaon(Jn), Murtizapur Road, National Highway No. 6, Akola",Amravati,Akola,Un-Aided,Non-Autonomous,Non-Minority
01117,"Janata Shikshan Prasarak Mandals Babasaheb Naik College Of Engineering, Pusad","Kalra Road, Pusad  Dist Yavatmal",Amravati,Yavatmal,Un-Aided,Non-Autonomous,Non-Minority
01119,"Paramhansa Ramkrishna Maunibaba Shikshan Santha's , Anuradha Engineering College, Chikhali","Anuradhha Nagar, Sakegaon Road, Chikhali Dist. Buldhana",Amravati,Buldhana,Un-Aided,Non-Autonomous,Non-Minority
01120,"Jawaharlal Darda Institute of Engineering and Technology, Yavatmal","MIDC, Lohara, Amaravati Road, Yavatmal",Amravati,Yavatmal,Un-Aided,Non-Autonomous,Linguistic Minority - Hindi
01121,"Shri Hanuman Vyayam  Prasarak Mandals College of Engineering & Technology, Amravati","Hanuman Vyayam Nagar, H.V.P.M. Campus, Amravati",Amravati,Amravati,Un-Aided,Non-Autonomous,Non-Minority
01123,"Dr.Rajendra Gode Institute of Technology & Research, Amravati","University Mardi Road, Opp. Heart Hospital, Amravati",Amravati,Amravati,Un-Aided,Non-Autonomous,Non-Minority
01125,"Dwarka Bahu Uddeshiya Gramin Vikas Foundation, Rajarshi Shahu College of Engineering, Buldhana","Rajarshi Shahu Nagar, Near Palna Ghar, Sagwan Road,  Buldhana",Amravati,Buldhana,Un-Aided,Non-Autonomous,Non-Minority
01126,"Takshashila Institute of Engineering & Technology, Darapur, Amravati","Darapur, Taluka. Daryapur, Amravati",Amravati,Amravati,Un-Aided,Non-Autonomous,Non-Minority
01127,"Jagadambha Bahuuddeshiya Gramin Vikas Sanstha's Jagdambha College of Engineering and Technology, Yavatmal","Sr. No.167/1,167/2 &163/,Arni Road, Mauza-Kinhi,Tal & Dist-Yavatmal",Amravati,Yavatmal,Un-Aided,Autonomous,Non-Minority
01128,"Prof Ram Meghe College of Engineering  and Management, Badnera","New Express Highway, Badnera Dist. Amravati",Amravati,Amravati,Un-Aided,Non-Autonomous,Non-Minority
01130,"Vision Buldhana Educational & Welfare Society's Pankaj Laddhad Institute of Technology & Management Studies, Yelgaon","Chikhali Road, Post Yelgaon, Tal & Buldhana",Amravati,Buldhana,Un-Aided,Non-Autonomous,Non-Minority
01180,"Sanmati Engineering College, Sawargaon Barde, Washim","Survey no. 40, Washim-Malegaon Road, At. Post  Sawargaon Barde Dist. Washim",Amravati,Washim,Un-Aided,Non-Autonomous,Non-Minority
01182,"Padmashri Dr. V.B.  Kolte College of Engineering, Malkapur, Buldhana","Malkapur, Dist. Buldhana",Amravati,Buldhana,Un-Aided,Non-Autonomous,Non-Minority
01265,"Mauli Group of Institutions, College of Engineering and Technology, Shegaon.","Khamgaon Road, Shegaon Dist. Buldhana",Amravati,Buldhana,Un-Aided,Non-Autonomous,Non-Minority
01268,"Siddhivinayak Technical Campus, School of Engineering & Research Technology, Shirasgon, Nile","Gat No.133,134 & 140, Shegaon Khamgaon Road, Shirasgaon, Nile, Tal. Shegaon",Amravati,Buldhana,Un-Aided,Non-Autonomous,Non-Minority
01276,"Manav School of Engineering & Technology, Gut No. 1035 Nagpur Surat Highway, NH No. 6 Tal.Vyala, Balapur, Akola,  444302","Gut No.1035, Surat Nagpur Highway Vyala, Tal.Balapur, Akola",Amravati,Akola,Un-Aided,Non-Autonomous,Non-Minority
02008,"Government College of Engineering,  Chhatrapati Sambhajinagar","Station Road, Osmanpura,   CHHATRAPATISAMBHAJINAGAR",Aurangabad,Chhatrapati Sambhajinagar,Government,Autonomous,Non-Minority
02020,"Shri Guru Gobind Singhji Institute of Engineering and Technology, Nanded","Vishnupuri, Nanded",Aurangabad,Nanded,Government-Aided,Autonomous,Non-Minority
02021,"University Department of Chemical Technology, Aurangabad","Dr. Babasaheb Ambedkar Marathwada University Campus, Aurangabad",Aurangabad,Chhatrapati Sambhajinagar,University Department,Non-Autonomous,Non-Minority
02032,"Institute of Chemical Technology, Mumbai Marathwada off campus, Jalna","M/s Beej Sheetal Innovations Centre Pvt. Ltd, BT-5 Biotechnology Park, Jalna Industrial Area  MIDC, Additional MIDC, Aurangabad Road, Jalna",Aurangabad,Jalna,University Managed,Autonomous,Non-Minority
02111,"Everest Education Society, Group of Institutions (Integrated Campus), Ohar","Gut No.187&189, Ohar, Jatwada Road,  Aurangabad",Aurangabad,Chhatrapati Sambhajinagar,Un-Aided,Non-Autonomous,Religious Minority - Muslim
02112,"Shree Yash Pratishthan, Shreeyash College of Engineering and Technology, Aurangabad","Gut No. 258 (P), Satara Tanda, Tal & Dist. Aurangabad",Aurangabad,Chhatrapati Sambhajinagar,Un-Aided,Non-Autonomous,Non-Minority
02113,"G. S. Mandal's Maharashtra Institute of Technology, Aurangabad","N.H. No. 211,Beed bypass Road, Satara, Aurangabad",Aurangabad,Chhatrapati Sambhajinagar,Un-Aided,Autonomous,Non-Minority
02114,"Deogiri Institute of Engineering and Management Studies, Aurangabad","Deogiri College Campus, Railway Station Road, Aurangabad",Aurangabad,Chhatrapati Sambhajinagar,Un-Aided,Non-Autonomous,Non-Minority
02116,"Matoshri Pratishan's Group of Institutions (Integrated Campus), Kupsarwadi , Nanded","Jijau Nagar, Off Nanded Latur Highway, Kupsarwadi, Post Vishnupuri. Dist. Nanded",Aurangabad,Nanded,Un-Aided,Non-Autonomous,Non-Minority
02127,"Mahatma Gandhi Missions College of Engineering, Hingoli Rd, Nanded.","Near Airport,Hingoli Road, Nanded",Aurangabad,Nanded,Un-Aided,Non-Autonomous,Non-Minority
02129,"M.S. Bidve Engineering College, Latur","P.O. Box No. 112, Barshi Road, Latur",Aurangabad,Latur,Un-Aided,Non-Autonomous,Non-Minority
02130,"Terna Public Charitable Trust's College of Engineering, Osmanabad","Solapur  Road, Osmanabad",Aurangabad,Dharashiv,Un-Aided,Non-Autonomous,Non-Minority
02131,"Shree Tuljabhavani College of Engineering, Tuljapur","Naldurg Road, Tuljapur, Dist. Osmanabad",Aurangabad,Dharashiv,Un-Aided,Non-Autonomous,Non-Minority
02133,"Mahatma Basaweshwar Education Society's College of Engineering, Ambejogai","Ambejogai, Beed",Aurangabad,Beed,Un-Aided,Non-Autonomous,Non-Minority
02134,"Peoples Education Society's College of Engineering, Aurangabad","Nagasen Vana, Near Panchakki, University Rd., Aurangabad",Aurangabad,Chhatrapati Sambhajinagar,Un-Aided,Non-Autonomous,Non-Minority
02135,"Hi-Tech Institute of Technology, Aurangabad","P-119, Bajajnagar, Aurangabad",Aurangabad,Chhatrapati Sambhajinagar,Un-Aided,Non-Autonomous,Non-Minority
02136,"Aditya Engineering College , Beed","Telgaon Road, Beed Tal.& Dist. Beed",Aurangabad,Beed,Un-Aided,Non-Autonomous,Non-Minority
02137,"Nagnathappa Halge Engineering  College, Parli, Beed","At Brahmwadi , Post Tokwadi, Parli-Beed State Highway, Parli Vaijnath Dist. Beed",Aurangabad,Beed,Un-Aided,Non-Autonomous,Non-Minority
02138,"Matsyodari Shikshan Sansatha's College of Engineering and Technology, Jalna","Jalna-Aurangabad Road, Nagewadi, Jalna",Aurangabad,Jalna,Un-Aided,Non-Autonomous,Non-Minority
02146,"Adarsh Shikshan Prasarak Mandal's K. T. Patil College of Engineering and Technology, Osmanabad","Keshav Nagar, Jadahavwadi Road, Osmanabad.Tal.  & Dist. Osmanabad",Aurangabad,Dharashiv,Un-Aided,Non-Autonomous,Non-Minority
02250,"Aurangabad College of Engineering,  Naygaon Savangi, Aurangabad","GatT No 52, TUljapur Shivar, Naygoan Savangi, Aurangabad",Aurangabad,Chhatrapati Sambhajinagar,Un-Aided,Non-Autonomous,Non-Minority
02252,"Marathwada Shikshan Prasarak Mandal's Shri Shivaji Institute of Engineering and Management Studies, Parbhani","Vasmat Road,Parbhani",Aurangabad,Parbhani,Un-Aided,Non-Autonomous,Non-Minority
02254,"Vilasrao Deshmukh Foundation Group of Institutions, Latur","Additional MIDC Area, Plot 165A, Near to Manjara Sugar, Latur",Aurangabad,Latur,Un-Aided,Non-Autonomous,Non-Minority
02282,"Aditya Education Trust's Mitthulalji Sarada Polytechnic, Nalwandi Road, Beed","Sr. No. 123, Bahirwadi, Nalwandi Road, Beed",Aurangabad,Beed,Un-Aided,Non-Autonomous,Non-Minority
02508,GRAMIN TECHNICAL AND MANAGEMENT CAMPUS NANDED.,"Vishnupuri,Naiknagar, Nanded , 431606",Aurangabad,Nanded,Un-Aided,Non-Autonomous,Non-Minority
02516,International Centre Of Excellence In Engineering  and Management (ICEEM),"Gut No.4,Opp.Bajaj Auto ltd. Infront of MIDC filtration plant,Aurangabad-Pune High way",Aurangabad,Chhatrapati Sambhajinagar,Un-Aided,Non-Autonomous,Non-Minority
02522,"STMEI's Sandipani Technical Campus-Faculty of Engineering, Latur.","Gat No. 23, Kolpa Tq & Dist. Latur",Aurangabad,Latur,Un-Aided,Non-Autonomous,Non-Minority
02533,"CSMSS Chh. Shahu College of Engineering, Aurangabad","Kanchanwadi, Paithan Road, Aurangabad.",Aurangabad,Chhatrapati Sambhajinagar,Un-Aided,Non-Autonomous,Non-Minority
02637,"Jijau Institute of Engineering Technology and Management, Khandgaon (Bendri), Taluka Naigaon, District Nanded","Khandgaon (Bendri), Taluka Naigaon, District Nanded",Aurangabad,Nanded,Un-Aided,Non-Autonomous,Non-Minority
02641,Dr. V.K. Patil College of Engineering & Technology,"N. H. - 52, Aurangabad Road, Gadpati, Osmanabad",Aurangabad,Dharashiv,Un-Aided,Non-Autonomous,Non-Minority
02666,Mangaldeep College of Engineering,"Gut No. 229, Beed Road, Nipani, Chh.Sambhaji Nagar",Aurangabad,Chhatrapati Sambhajinagar,Un-Aided,Non-Autonomous,Non-Minority
02758,Sant Eknath College of Engineering,"Nipani-Bhalgaon, Beed Highway Road,  Bhalgaon, Chh. Sambhaji Nagar",Aurangabad,Chhatrapati Sambhajinagar,Un-Aided,Non-Autonomous,Non-Minority
03012,"Veermata Jijabai Technological Institute(VJTI), Matunga, Mumbai","H.R. Mahajani Marg, Matunga, Mumbai",Mumbai,Mumbai City,Government-Aided,Autonomous,Non-Minority
03014,"Sardar Patel College of Engineering, Andheri","Munshi Nagar, Andheri (West),  Mumbai - Suburban ,Mumbai",Mumbai,Mumbai Suburban,Government-Aided,Autonomous,Non-Minority
03025,Svkm's Shri Bhagubhai Mafatlal Polytechnic & College of Engineering,"N.R.G. Gadkari Marg, Mumbai , 400056",Mumbai,Mumbai City,Government-Aided,Autonomous,Linguistic Minority - Gujarathi
03033,"Dr. Babasaheb Ambedkar Technological University, Lonere","Vidyavihar, P.O. Lonere, Ta-Mangaon Dist. Raigad",Mumbai,Raigad,University,Non-Autonomous,Non-Minority
03035,"Usha Mittal Institute of Technology SNDT  Women's University, Mumbai","SNDT  Women's University, Mumbai Juhu Campus, Santacruz (W), Mumbai",Mumbai,Mumbai Suburban,University Managed (Un-Aided),Non-Autonomous,Non-Minority
03036,"Institute of Chemical Technology, Matunga, Mumbai","Nathalal Parikh Marg, Matunga, Mumbai",Mumbai,Mumbai City,Deemed University,Autonomous,Non-Minority
03042,"Loknete Shamrao Peje Government College of Engineering, Ratnagiri","Government Polytechnic Campus, Near Thiba Palace, Ratnagiri",Mumbai,Ratnagiri,Government,Non-Autonomous,Non-Minority
03135,"Manjara Charitable Trust's Rajiv Gandhi Institute of Technology, Mumbai","Off. Juhu Versova Link Road, Versova, Andheri(W) Mumbai",Mumbai,Mumbai Suburban,Un-Aided,Non-Autonomous,Non-Minority
03139,"Vidyalankar Institute of Technology,Wadala, Mumbai","Vidyalankar Educational Campus,Vidyalankar College Marg, Wadala(E), Mumbai",Mumbai,Mumbai City,Un-Aided,Autonomous,Non-Minority
03143,"Thakur Shyamnarayan Engineering College, Mumbai","Thakur Complex, West To Western Express Highway Kandivali East, Mumbai",Mumbai,Mumbai Suburban,Un-Aided,Non-Autonomous,Linguistic Minority - Hindi
03146,"Jawahar Education Society's Annasaheb Chudaman Patil College of Engineering,Kharghar, Navi Mumbai","Sector 4,Ploat No-17,Kharghar, Navi Mumbai. Dist. Raigad",Mumbai,Raigad,Un-Aided,Non-Autonomous,Non-Minority
03147,"Saraswati Education Society, Yadavrao Tasgaonkar  Institute of Engineering & Technology, Karjat","Near Bhiv puri Road Railway statiion Chandai ,Tal Karjat, Dist Raigad",Mumbai,Raigad,Un-Aided,Non-Autonomous,Non-Minority
03148,"Mahavir Education Trust's Shah & Anchor Kutchhi Engineering College, Mumbai","Vaman Tukaram Patil Marg, Chembur, Mumbai",Mumbai,Mumbai Suburban,Un-Aided,Autonomous,Linguistic Minority - Gujarathi(Jain)
03154,"Saraswati Education Society's Saraswati College of Engineering,Kharghar Navi Mumbai","Plot No 46/46 A, Sector 5 Near MSEB Sub Station Kharghar Navi Mumbai  Dist. Raigad",Mumbai,Raigad,Un-Aided,Non-Autonomous,Non-Minority
03175,"M.G.M.'s College of Engineering and Technology, Kamothe, Navi Mumbai","At Junction of NH4 & Sion-Panvel Expressway,  Kamothe, Navi Mumbai",Mumbai,Raigad,Un-Aided,Non-Autonomous,Non-Minority
03176,"Thakur College of Engineering and Technology, Kandivali, Mumbai","Thakur Shyamnarayan Marg,Thakur Village,Kandivali(E), Mumbai",Mumbai,Mumbai Suburban,Un-Aided,Autonomous,Linguistic Minority - Hindi
03182,"Thadomal Shahani Engineering College, Bandra, Mumbai","37th Road, Off Linking Road, (Near National), Bandra (West), Mumbai",Mumbai,Mumbai Suburban,Un-Aided,Non-Autonomous,Linguistic Minority - Sindhi
03183,"Anjuman-I-Islam's M.H. Saboo Siddik College of Engineering, Byculla, Mumbai","8, M.H.Saboo Siddik Polytechnic Road, P.O.Box: 4627, Byculla ,Mumbai",Mumbai,Mumbai City,Un-Aided,Non-Autonomous,Religious Minority - Muslim
03184,"Fr. Conceicao Rodrigues College of Engineering, Bandra,Mumbai","Father Agnel Ashram , Band-stand, Bandra (West), Mumbai",Mumbai,Mumbai Suburban,Un-Aided,Autonomous,Religious Minority - Christian
03185,"Vivekanand Education Society's Institute of Technology, Chembur, Mumbai","Hashu Advani Memorial Complex, Behind Collector Colony, R.C. Marg, Chembur, Mumbai",Mumbai,Mumbai Suburban,Un-Aided,Autonomous,Linguistic Minority - Sindhi
03187,"N.Y.S.S.'s Datta Meghe College of Engineering, Airoli, Navi Mumbai","P.B. No. 15, CIDCO Colony, Plot No. 98, Sector 3,  Airoli, Navi Mumbai",Mumbai,Thane,Un-Aided,Non-Autonomous,Non-Minority
03188,"Vasantdada Patil Pratishthan's College Of Engineering and Visual Arts, Sion, Mumbai","Padmabhushan Vasantdada Patil Education Complex, Eastern Express Highway, Near Everard Nagar,  Sion-Chunabhatti Mumbai",Mumbai,Mumbai City,Un-Aided,Non-Autonomous,Non-Minority
03189,"Bharati Vidyapeeth College of Engineering,  Navi Mumbai","Sector - 7,CBD- Belpur, Navi Mumbai 400614",Mumbai,Thane,Un-Aided,Non-Autonomous,Non-Minority
03190,"Terna Engineering College, Nerul, Navi Mumbai","Plot No. 12, Sector-22,Opp. Nerul Railway Station,Phase-II, Nerul (W),Navi Mumbai",Mumbai,Thane,Un-Aided,Non-Autonomous,Non-Minority
03192,"Smt. Indira Gandhi College of Engineering, Navi Mumbai","Plot No.1, Sector No. 08, Ghansoli , Navi Mumbai 400 701",Mumbai,Thane,Un-Aided,Non-Autonomous,Non-Minority
03193,"Shivajirao S. Jondhale College of Engineering, Dombivali,Mumbai","Sheel Kalyan Highway, Behind Venkatesh Petrolpump, Sonarpada, Manpada Post, Dombivali (E) Thane",Mumbai,Thane,Un-Aided,Non-Autonomous,Non-Minority
03194,"Vidyavardhini's College of Engineering and Technology, Vasai","Vasai Road (W Rly), Tal: Vasai, District Palghar",Mumbai,Palghar,Un-Aided,Non-Autonomous,Non-Minority
03196,"Lokmanya Tilak College of Engineering, Kopar Khairane, Navi Mumbai","Sector - 4, Plot N0 17 & 18, Vikas Nagar, Koparkhairane, Navi Mumbai",Mumbai,Thane,Un-Aided,Non-Autonomous,Linguistic Minority - Hindi
03197,"Agnel Charities FR. C. Rodrigues Institute of Technology, Vashi, Navi Mumbai","Sector 9-A,  Vashi, Navi Mumbai,",Mumbai,Thane,Un-Aided,Autonomous,Religious Minority - Christian
03198,"Konkan Gyanpeeth College of Engineering, Karjat","Vengaon Road, Dahivali, Karjat",Mumbai,Raigad,Un-Aided,Non-Autonomous,Non-Minority
03199,"Shri Vile Parle Kelvani Mandal's Dwarkadas J. Sanghvi College of Engineering, Vile Parle,Mumbai","Plot No. U-15, J.V.P.D. Scheme, Bhaktivedanta Swami Marg, Vile Parle (West), Mumbai",Mumbai,Mumbai Suburban,Un-Aided,Autonomous,Linguistic Minority - Gujarathi
03200,"Hope Foundation and research center's  Finolex Academy of Management and Technology, Ratnagiri","P- 60, P-60/1, MIDC, Mirjole Block, Ratnagiri",Mumbai,Ratnagiri,Un-Aided,Non-Autonomous,Non-Minority
03201,"Rizvi Education Society's Rizvi College of Engineering, Bandra,Mumbai","Rizvi Educational Complex, Off Carter Road, Sherly Rajan Village, Bandra (W), Mumbai",Mumbai,Mumbai Suburban,Un-Aided,Non-Autonomous,Religious Minority - Muslim
03202,Rajendra Mane College of Engineering & Technology  Ambav Deorukh,"At - Ambav (Devrukh).Tal Sangameshwar,Dist.- Ratnagiri",Mumbai,Ratnagiri,Un-Aided,Non-Autonomous,Non-Minority
03203,"Atharva College of Engineering,Malad(West),Mumbai","S. No. 263, Plot No. 8-12, Malad-Marve Rd, Charkop Naka, Malad(W), Mumbai",Mumbai,Mumbai Suburban,Un-Aided,Non-Autonomous,Non-Minority
03204,"St. Francis Institute of Technology,Borivali, Mumbai","Mount Poinsur, S.V.P. Road, Borivali ( W ), Mumbai",Mumbai,Mumbai Suburban,Un-Aided,Autonomous,Religious Minority - Christian
03206,"S.S.P.M.'s College of Engineering, Kankavli","A/P-Harkul Budruk, Tal- Kankavali. Dist-Sindhudurg",Mumbai,Sindhudurg,Un-Aided,Non-Autonomous,Non-Minority
03207,"Mahatma Education Society's Pillai College of Engineering, New Panvel","Dr. K.M.Vasudevan Pillais' Campus Plot No. 10, Sector 16, New Panvel, Dist.Raigad",Mumbai,Raigad,Un-Aided,Autonomous,Linguistic Minority - Malyalam
03208,"Don Bosco Institute of Technology, Mumbai","Premier Automobiles Road,Opp. Fiat Company, Kurla (West), Mumbai",Mumbai,Mumbai Suburban,Un-Aided,Non-Autonomous,Religious Minority - Roman Catholics
03209,K J Somaiya Institute of Technology,"Somaiya Auryvihar Complex,  Near Everard Nagar Eastern Express Highway, Sion (East), Mumbai",Mumbai,Mumbai Suburban,Un-Aided,Autonomous,Linguistic Minority - Gujarathi
03210,"Excelsior Education Society's K.C. College of Engineering and Management Studies and Research, Kopri, Thane (E)","Mith bunder Road, Near Sadguru Gardens, Kopri, Thane (E)",Mumbai,Thane,Un-Aided,Non-Autonomous,Linguistic Minority - Punjabi
03211,"S.I.E.S. Graduate School of Technology, Nerul, Navi Mumbai","Sri. Chandrsekarendra Saraswathy Vidyapuram, Sector-5, Plot 1C&1E, Nerul Dist. Raigad",Mumbai,Thane,Un-Aided,Autonomous,Linguistic Minority - Tamil
03212,"Watumull Institute of  Engineering & Technology, Ulhasnagar","Plot  No.157, Shrimati S H Mansukhani  Road ,Opposite Ulhasnagar Railway Station (West) , Ulhasnagar ,Dist.Thane",Mumbai,Thane,Un-Aided,Non-Autonomous,Linguistic Minority - Sindhi
03214,"Xavier Institute Of Engineering C/O  Xavier Technical Institute,Mahim,Mumbai","Opposite S.L.Raheja Hospital, Mahim Causeway, Mahim(W),   Mumbai",Mumbai,Mumbai City,Un-Aided,Non-Autonomous,Religious Minority - Christian
03215,"Bhartiya Vidya Bhavan's Sardar Patel Institute  of Technology , Andheri, Mumbai","Bhavan's Campus, Versova Road, Munshi Nagar, Andheri (West), Mumbai",Mumbai,Mumbai Suburban,Un-Aided,Autonomous,Non-Minority
03216,"Gharda Foundation's Gharda Institute of Technology,Khed, Ratnagiri","A & Po. Lavel Tal Khed,  Dist. Ratnagiri",Mumbai,Ratnagiri,Un-Aided,Non-Autonomous,Non-Minority
03217,"Vighnaharata Trust's  Shivajirao S. Jondhale College of Engineering & Technology, Shahapur, Asangaon, Dist Thane","At Asangaon, Tal Shahapur, Opp Railway station, Dist : Thane",Mumbai,Thane,Un-Aided,Non-Autonomous,Non-Minority
03218,"Aldel Education Trust's St. John College of Engineering & Management, Vevoor, Palghar","St. John Technical Education Complex, Village Vevoor,Manor Road  Palghar (E)",Mumbai,Palghar,Un-Aided,Autonomous,Religious Minority - Christian
03219,"Koti Vidya Charitable Trust's  Smt. Alamuri Ratnamala Institute of Engineering and Technology,  Sapgaon, Tal. Shahapur","Sapgaon, Taluka Shahapur  Dist. Thane",Mumbai,Thane,Un-Aided,Non-Autonomous,Linguistic Minority - Hindi
03220,Yadavrao Tasgaonkar College of Engineering & Management,"Chandhai, Neral - Kadav Raod, Post Nasrapur, Taluka Karjat, Dist. Raigad",Mumbai,Raigad,Un-Aided,Non-Autonomous,Non-Minority
03221,"Vishnu Waman Thakur Charitable Trust's VIVA Institute of Technology, Virar","AT SHIRGAON, POST:- VIRAR (EAST), TAL -VASAI,DIST.THANE",Mumbai,Palghar,Un-Aided,Non-Autonomous,Non-Minority
03222,"Haji Jamaluddin Thim Trust's Theem College of Engineering, At. Villege Betegaon, Boisar","At Village Betegaon,Boisar Chillhar Road , Near Union Park,  Boisar(E), Tal: Palghar,",Mumbai,Palghar,Un-Aided,Non-Autonomous,Religious Minority - Muslim
03223,"Mahatma Education Society's Pillai HOC College of Engineering & Technology, Tal. Khalapur. Dist. Raigad","Pillai HOCL Educational Campus, Rasayani, Tal. Khalapur. Dist. Raisad-",Mumbai,Raigad,Un-Aided,Non-Autonomous,Linguistic Minority - Malyalam
03224,"Leela Education Society, G.V. Acharya Institute of Engineering and Technology, Shelu, Karjat","Shelu/Damat Village, (Opp. Shelu Rly Station), Tal. Karjat. Dist. Raigad",Mumbai,Raigad,Un-Aided,Non-Autonomous,Non-Minority
03257,"Vidya Prasarak Mandal's College of Engineering, Thane","Chendani, Bunder Road, Jnanadweepa , College Campus Thane , 400601",Mumbai,Thane,Un-Aided,Non-Autonomous,Non-Minority
03277,Pravin Rohidas Patil College of Engineering & Technology,"Mahavidyalaya Marg ,Navghar, Western Railway ,Bhayander(E), Bhayandar,Thane , 401105",Mumbai,Thane,Un-Aided,Non-Autonomous,Non-Minority
03351,"Bharat College of Engineering, Kanhor, Badlapur(W)","Kanhor, Badlapur(w).,Tal- Ambernath. Dist. Thane",Mumbai,Thane,Un-Aided,Non-Autonomous,Non-Minority
03353,"Dilkap Research Institute Of Engineering and Management Studies, At.Mamdapur, Post- Neral, Tal- Karjat,  Mumbai","Village At.Mamdapur, Post- Neral, Tal- Karjat,  Dist.Raigadh",Mumbai,Raigad,Un-Aided,Non-Autonomous,Non-Minority
03423,"Shree L.R. Tiwari College of Engineering, Mira Road, Mumbai","Survey no. 267, Near Commisioner's Bungalow,Kanakiya Park,Mira Road (E)Thane",Mumbai,Thane,Un-Aided,Non-Autonomous,Linguistic Minority - Hindi
03436,"B.R. Harne College of Engineering & Technology, Karav, Tal-Ambernath.","At.Karav, Post Vangani(w), Tal. Ambernath, Dist. Thane",Mumbai,Thane,Un-Aided,Non-Autonomous,Non-Minority
03439,"Anjuman-I-Islam's Kalsekar Technical Campus, Panvel","Plot No.2, 3 Sector - 16, Khandgaon, Thane Naka, Panvel Dist. Raigad",Mumbai,Raigad,Un-Aided,Non-Autonomous,Religious Minority - Muslim
03440,"Metropolitan Institute of Technology & Management, Sukhalwad, Sindhudurg.","At Village Sukhalwad, Near Sindhudurg Railway Station, Post Oras, Tal. Malvan Dist. Sindhudurg",Mumbai,Sindhudurg,Un-Aided,Non-Autonomous,Non-Minority
03445,"Vishwatmak Jangli Maharaj Ashram Trust (Kokamthan), Atma Malik Institute Of Technology & Research","Aatgaon ,Tansa - Aghai Road, At - Mohili, Post. Aghar, Taluka Shahapur, Dist. Thane",Mumbai,Thane,Un-Aided,Non-Autonomous,Non-Minority
03447,"G.M.Vedak Institute of Technology, Tala, Raigad.","At Post Taluka. Tala, Dist. Raigad",Mumbai,Raigad,Un-Aided,Non-Autonomous,Non-Minority
03460,"Universal College of Engineering,Kaman Dist. Palghar","Kaman Bhiwandi Road, S.N. 146(Part), Kaman, Vasai",Mumbai,Palghar,Un-Aided,Non-Autonomous,Linguistic Minority - Gujarathi
03462,"VPM's Maharshi Parshuram College of Engineering, Velneshwar, Ratnagiri.","At Post Velneshwar, Hedvai-Guhagar Road, Guhagar,Ratnagiri.",Mumbai,Ratnagiri,Un-Aided,Non-Autonomous,Non-Minority
03465,"Ideal Institute of Technology, Wada, Dist.Thane","40, Pasheri Village, Pimplaj road, Taluka Wada, Dist.Thane.",Mumbai,Palghar,Un-Aided,Non-Autonomous,Non-Minority
03467,"Vishwaniketan's Institute of Management Entrepreneurship and Engineering Technology(i MEET), Khalapur Dist Raigad","Survey No. 52 Kumbhivali, On Mumbai-Pune Expressway, Near Khalapur Toll Naka ,Tal-Khalapur, Dist- Raigad",Mumbai,Raigad,Un-Aided,Non-Autonomous,Non-Minority
03470,YASHWANTRAO BHONSALE INSTITUTE OF TECHNOLOGY,A/P CHARATHE (VAZARWADI) TAL.SAWANTWADI DIST.SINDHUDURG-416510,Mumbai,Sindhudurg,Un-Aided,Non-Autonomous,Non-Minority
03471,"New Horizon Institute of Technology & Management, Thane","Anand Nagar, Kavesar, Off. Ghodbunder Road, Thane(W)",Mumbai,Thane,Un-Aided,Non-Autonomous,Non-Minority
03475,"A. P. Shah Institute of Technology, Thane","Survey No. 12, Opp. Hypercity Mall, Kasarvadavali, Ghodbunder Road, Thane (W)",Mumbai,Thane,Un-Aided,Non-Autonomous,Religious Minority - Jain
03477,"Chhartrapati Shivaji Maharaj Institute of Technology, Shedung, Panvel","92A/1, Old Mumbai Pune Highway, Near Shedung Toll naka Village Shedung, Panvel, Dist Raigad",Mumbai,Raigad,Un-Aided,Non-Autonomous,Non-Minority
03503,"Indala College Of Engineering, Bapsai Tal.Kalyan","Near Hp Gagangiri Petrol Pump, Kalyan-Murbad Road, Bapsai, Taluka Kalyan, Dist Thane",Mumbai,Thane,Un-Aided,Non-Autonomous,Non-Minority
03546,Devi Mahalaxmi College of Engineering and Technology,"Survey No 108, Mhaskarl, Titwala, Taluka Kalyan, Dist.Thane",Mumbai,Thane,Un-Aided,Non-Autonomous,Non-Minority
04004,"Government College of Engineering, Chandrapur","Ballarsha Bypass Road,Chandrapur",Nagpur,Chandrapur,Government,Non-Autonomous,Non-Minority
04025,"Government College of Engineering, Nagpur","Sector-27, Mihan Rehabilitation Colony, Khapari, Nagpur",Nagpur,Nagpur,Government,Non-Autonomous,Non-Minority
04104,"Kavi Kulguru Institute of Technology & Science, Ramtek","K. K. Nagar, Ramtek, Nagpur - 441 106",Nagpur,Nagpur,Un-Aided,Non-Autonomous,Non-Minority
04116,"Ankush Shikshan Sanstha's G.H.Raisoni College of Engineering, Nagpur","C.R.P.F. Gate No.3, Digdoh Hills, Hingna Road, Nagpur",Nagpur,Nagpur,Un-Aided,Autonomous,Linguistic Minority - Hindi
04118,"Bapurao Deshmukh College of Engineering, Sevagram","P.O.Sevagram,Dist-Wardha",Nagpur,Wardha,Un-Aided,Non-Autonomous,Non-Minority
04123,"Lokmanya Tilak Jankalyan Shikshan Sanstha, Priyadarshani College of Engineering, Nagpur","Near CRPF Campus, Hingna Road, Nagpur",Nagpur,Nagpur,Un-Aided,Autonomous,Linguistic Minority - Hindi
04133,"Sanmarg Shikshan Sanstha's Smt. Radhikatai Pandav College of Engineering, Nagpur","Near Dighori Naka, Umrer Road, Bhadura, Nagpur",Nagpur,Nagpur,Un-Aided,Non-Autonomous,Non-Minority
04134,"Guru Nanak Institute of Engineering & Technology,Kalmeshwar, Nagpur","Khasara No-94,95&164/1,Mauza Dahegaon,Opposite IOC Prtrol Pump,Kalmeshwar, Nagpur",Nagpur,Nagpur,Un-Aided,Non-Autonomous,Non-Minority
04135,"Amar Seva Mandal's Shree Govindrao Vanjari College of Engineering &  Technology, Nagpur","Survey No. 148/149, Salai Godhani, Near Chikna Village, Hudakeshwar Road, Nagpur",Nagpur,Nagpur,Un-Aided,Non-Autonomous,Non-Minority
04136,"Lokmanya Tilak Jankalyan Shikshan Sastha, Priyadarshini J. L. College Of Engineering, Nagpur","846, Nandanvan, Nagpur",Nagpur,Nagpur,Un-Aided,Autonomous,Linguistic Minority - Hindi
04137,"Sir Shantilal Badjate Charitable Trust's S. B. Jain Institute of technology, Management & Research, Nagpur","Behind Asarambapu Ashram Village, Yerala, Katol Road, Nagpur",Nagpur,Nagpur,Un-Aided,Autonomous,Linguistic Minority - Hindi
04138,"Jaidev Education Society, J D College of Engineering and Management, Nagpur","At Khandala, Post Vaini Katol Road, Nagpur",Nagpur,Nagpur,Un-Aided,Autonomous,Linguistic Minority - Hindi
04139,"Samridhi Sarwajanik Charitable Trust, Jhulelal Institute of Technology, Nagpur","Kh. No.72, 68/1, 68/2, 68/3, Lonara Dist. Nagpur",Nagpur,Nagpur,Un-Aided,Autonomous,Linguistic Minority - Sindhi
04141,"Shriram Gram Vikas Shikshan Sanstha, Vilasrao Deshmukh College of Engineering and Technology, Nagpur","Sr. No.121, 262, At Mouza, Taluka Mauda, Bhandara Road, Nagpur",Nagpur,Nagpur,Un-Aided,Non-Autonomous,Non-Minority
04142,"G H Raisoni College of Engineering & Management, Nagpur","MIDC, Near Facor, Higna Wadi Road, Nagpur",Nagpur,Nagpur,Un-Aided,Autonomous,Linguistic Minority - Hindi
04143,"Sanmarg Shikshan Sanstha, Mandukarrao Pandav College of Engineering, Bhandara","Sr. No.183/1, Billewada, Taluka & Dist Bhandara",Nagpur,Bhandara,Un-Aided,Non-Autonomous,Non-Minority
04144,"Shri. Sai Shikshan Sanstha, Nagpur Institute of Technology, Nagpur","Sr. No.13/2, Mahurzari, Katol Road, Taluka & Dist Nagpur",Nagpur,Nagpur,Un-Aided,Non-Autonomous,Non-Minority
04145,"Wainganga College of Engineering and Management, Dongargaon, Nagpur","Dongargoan, Near Gumgaon Railway Station, Post - Gumgaon, Wardha road, Nagpur",Nagpur,Nagpur,Un-Aided,Autonomous,Non-Minority
04147,"K.D.K. College of Engineering, Nagpur","Great Nag Road, Nandanvan, Nagpur",Nagpur,Nagpur,Un-Aided,Autonomous,Non-Minority
04151,"Tulsiramji Gaikwad Patil College of Engineering & Technology, Nagpur","Kh. No. 8/1, Mohgaon,Wardha Road,Nagpur",Nagpur,Nagpur,Un-Aided,Autonomous,Non-Minority
04163,Rajiv Gandhi College of Engineering Research & Technology  Chandrapur,Ballarpur Road Babupeth Dist. Chandrapur,Nagpur,Chandrapur,Un-Aided,Non-Autonomous,Non-Minority
04167,"Yeshwantrao Chavan College of Engineering,Wanadongri, Nagpur","Hingna Road, Wanadongri, Nagpur  441110",Nagpur,Nagpur,Un-Aided,Autonomous,Non-Minority
04172,"Anjuman College of Engineering & Technology, Nagpur","Mangalwari Bazar Road, Sadar, Nagpur",Nagpur,Nagpur,Un-Aided,Non-Autonomous,Religious Minority - Muslim
04174,"ST. Vincent Pallotti College of Engineering & Technology, Nagpur","Gavsi Manapur, Wardha Road,  Nagpur",Nagpur,Nagpur,Un-Aided,Autonomous,Religious Minority - Christian
04175,"JMSS Shri Shankarprasad Agnihotri College of Engineering, Wardha","Agnihotri College Campus, Bapujiwadi, Ramnagar, Wardha",Nagpur,Wardha,Un-Aided,Non-Autonomous,Non-Minority
04177,"Priyadarshini Bhagwati  College of Engineering, Harpur Nagar, Umred Road,Nagpur","Harpur Nagar, Umrer Road, Nagpur",Nagpur,Nagpur,Un-Aided,Non-Autonomous,Linguistic Minority - Hindi
04181,"Swaminarayan Siddhanta Institute Of Technology, Nagpur","146,149,150 & 153,Nagpur Katol Highway, Khapri(Kothe),Tal.Kalmeshwar, Nagpur",Nagpur,Nagpur,Un-Aided,Non-Autonomous,Non-Minority
04188,"Krushi Jivan Vikas Pratishthan, Ballarpur Institute of Technology, Mouza Bamni","Bamani, Rajapura Road, Tal. Ballarpur. Chandrapur",Nagpur,Chandrapur,Un-Aided,Non-Autonomous,Non-Minority
04190,"M.D. Yergude Memorial Shikshan Prasarak Mandal's Shri Sai College of Engineering & Technology, Bhadrawati","Near Village Lonara, Nagpur Road, Tah- Bhadrawati, Dist- Chandrapur (M.S.)",Nagpur,Chandrapur,Un-Aided,Non-Autonomous,Non-Minority
04192,"Maitraya Education Society, Nagarjuna Institute of Engineering Technology & Management, Nagpur","Khasara No. 27, 32-B, At Satnavari, Amravati Road, Nagpur",Nagpur,Nagpur,Un-Aided,Non-Autonomous,Non-Minority
04193,"K.D.M. Education Society, Vidharbha Institute of Technology,Umred Road ,Nagpur","Gram UTI, Umred Road, Nagpur",Nagpur,Nagpur,Un-Aided,Autonomous,Linguistic Minority - Hindi
04196,"Gurunanak Educational Society's Gurunanak Institute of Technology, Nagpur","Dahegaon, Kalmeshwar Road, Nagpur",Nagpur,Nagpur,Un-Aided,Non-Autonomous,Non-Minority
04197,"Jai Mahakali Shikshan Sanstha, Agnihotri College of Engineering, Sindhi(Meghe)","Nagthana Road, Near Bypass Highway Road, Sindhi (Meghe). Wardha",Nagpur,Wardha,Un-Aided,Non-Autonomous,Non-Minority
04285,"V M Institute of Engineering and Technology, Dongargaon, Nagpur","Dhutte village , Near Dongargaon, Wardha Road, Nagpur",Nagpur,Nagpur,Un-Aided,Non-Autonomous,Non-Minority
04302,"Gondia Education Society's Manoharbhai Patel Institute Of Engineering & Technology, Shahapur, Bhandara","N.H.6 Shahapur,Bhandara",Nagpur,Bhandara,Un-Aided,Non-Autonomous,Non-Minority
04304,"Cummins College of Engineering For Women, Sukhali (Gupchup), Tal. Hingna Hingna Nagpur","Mouje Sukhali (Gupchup), Tal. Hingna  Dist. Nagpur",Nagpur,Nagpur,Un-Aided,Non-Autonomous,Non-Minority
04613,"Suryodaya College of Engineering & Technology, Nagpur","Survey No. 117/1 & 117/3 A, Vihirgaon, Nagpur",Nagpur,Nagpur,Un-Aided,Autonomous,Non-Minority
04648,"R.V. Parankar College of Engineering & Technology, Arvi, Dist Wardha","Survey No. 11611, Mauza - Sarangpuri, Talao Road, Darankikar Wadi, Taluka Arvi, Dist Wardha.",Nagpur,Wardha,Un-Aided,Non-Autonomous,Non-Minority
04649,"Bajaj Institute of Technology, Wardha","Arvi Road, in Front of Ramkrishna Bajaj Agriculture College, Pipri, Wardha",Nagpur,Wardha,Un-Aided,Non-Autonomous,Linguistic Minority - Hindi
04679,"Karanjekar College of Engineering & Management, Sakoli","Nagzira Road, Sakoli, District Bhandara",Nagpur,Bhandara,Un-Aided,Non-Autonomous,Non-Minority
04703,"Somayya Institute of Technology,  Chandrapur","Wadgaon Ward, Chandrapur",Nagpur,Chandrapur,Un-Aided,Non-Autonomous,Non-Minority
05003,"University Institute  of Chemical Technology, North Maharashtra University, Jalgaon","P.B.No. 80, Umavinagar, Jalgaon",Nashik,Jalgaon,University Department,Non-Autonomous,Non-Minority
05004,"Government College of Engineering, Jalgaon","Opp.Govt  I.T. I. National Highway No-6, Jalgaon",Nashik,Jalgaon,Government,Autonomous,Non-Minority
05103,"Shri Shivaji Vidya Prasarak Sanstha's Late Bapusaheb Shivaji Rao Deore College of Engineering,Dhule","Shri Shivaji Vidya Prasarak Sanstha's Late Bapusaheb Shivaji Rao Deore College of Engineering, Vidyanagari, Government Polytechnic Road, Deopur, Dhule",Nashik,Dhule,Un-Aided,Non-Autonomous,Non-Minority
05104,"Shramsadhana Bombay Trust, College of Engineering & Technology, Jalgaon","Bambori, Dharangaon,  Jalgaon",Nashik,Jalgaon,Un-Aided,Non-Autonomous,Non-Minority
05106,"Khandesh College Education Society's College Of Engineering And Management, Jalgaon","C.S. No. 7480 and 7323, Behind D.I.C., N.H.No.6,  IMR Campus, Jilha Path, Jalgaon",Nashik,Jalgaon,Un-Aided,Non-Autonomous,Non-Minority
05108,"Maratha Vidya Prasarak Samaj's Karmaveer Adv. Baburao Ganpatrao Thakare College Of Engineering, Nashik","Udoji Maratha Boarding Campus, Near Pumping Station, Gangapur Road, Nashik",Nashik,Nashik,Un-Aided,Autonomous,Non-Minority
05109,"Sandip Foundation, Sandip Institute of Technology and Research Centre, Mahiravani, Nashik","At Post mahiravani, Trimbak Road Dist Nashik",Nashik,Nashik,Un-Aided,Autonomous,Non-Minority
05121,"K. K. Wagh Institute of Engineering Education and Research, Nashik","Hirabai Haridas Vidyanagari, Amrut Dham,  Panchawati, Nashik",Nashik,Nashik,Un-Aided,Autonomous,Non-Minority
05124,"Jagadamba Education Soc. Nashik's S.N.D. College of Engineering & Reserch, Babulgaon","At. Post Babulgaon, Tal Yeola, Nashik",Nashik,Nashik,Un-Aided,Non-Autonomous,Non-Minority
05125,"Pravara Rural Education Society's Sir Visvesvaraya Institute of Technology, Chincholi Dist. Nashik","At / Po Chincholi, Tal. Sinnar, Nashik",Nashik,Nashik,Un-Aided,Non-Autonomous,Non-Minority
05130,"Brahma Valley College of Engineering & Research, Trimbakeshwar, Nashik","Anjaneri Village, Trimbakeshwar, Dist.Nashik 422103",Nashik,Nashik,Un-Aided,Non-Autonomous,Non-Minority
05139,"Pravara Rural College of Engineering, Loni, Pravaranagar, Ahmednagar.","A/P.Loni, Tal.Rahata  Dist.Ahmednagar",Nashik,Ahmednagar,Un-Aided,Non-Autonomous,Non-Minority
05151,"MET Bhujbal Knowledge City MET League's Engineering College, Adgaon, Nashik.","Bhujbal Knowledge City , MET's Institute Of Engineering, Adgaon, Nashik",Nashik,Nashik,Un-Aided,Non-Autonomous,Non-Minority
05152,"G H Raisoni College of  Engineering and Management, Jalgaon","Gat No 57/1, Shirsoli Road,  Mohadi,  Jalgaon  425003",Nashik,Jalgaon,Un-Aided,Autonomous,Linguistic Minority - Hindi
05160,"Sanjivani Rural Education Society's Sanjivani College of Engineering, Kopargaon","Sahajanand Nagar, Po : Shingnapur, Tal : Kopargaon, Dist. Ahmednagar",Nashik,Ahmednagar,Un-Aided,Autonomous,Non-Minority
05161,"Dr. Vithalrao Vikhe Patil College of Engineering, Ahmednagar","vadgaon Gupta, Vilad Ghat, P.O.-MIDC, Ahmednagar",Nashik,Ahmednagar,Un-Aided,Non-Autonomous,Non-Minority
05162,"Amrutvahini Sheti & Shikshan Vikas Sanstha's Amrutvahini College of Engineering, Sangamner","P.O.: Sangamner Sakhar Karkhana, Tal : Sangamner, Dist. Ahmednagar",Nashik,Ahmednagar,Un-Aided,Non-Autonomous,Non-Minority
05164,"P.S.G.V.P. Mandal's D.N. Patel College of Engineering, Shahada, Dist. Nandurbar","Poojya Sane Guruji Vidya Prasarak Mandal's, D.N. Patel College of Engineering, Shahada, Dist. Nandurbar",Nashik,Nandurbar,Un-Aided,Non-Autonomous,Linguistic Minority - Gujar
05168,"T.M.E. Society's J.T.Mahajan College of Engineering, Faizpur","Jivram Nagar, ,Nhavi Marg, PO:Faizpur(MSSK),  Dist. Jalgaon",Nashik,Jalgaon,Un-Aided,Non-Autonomous,Non-Minority
05169,"Nagaon  Education Society's Gangamai College of Engineering, Nagaon, Tal Dist Dhule","Nagaon At Post. Nagaon, Tal&Dist.  Dhule",Nashik,Dhule,Un-Aided,Non-Autonomous,Non-Minority
05170,"Hindi Seva Mandal's Shri Sant Gadgebaba College of Engineering & Technology, Bhusawal","Near Z.T.C Bhusawal, Dist. Jalgaon",Nashik,Jalgaon,Un-Aided,Non-Autonomous,Linguistic Minority - Hindi
05171,"Godavari Foundation's Godavari College Of Engineering,  Jalgaon","Plot No.51, Dr. Ulhas Patil Nagar, Additional MIDC, Bhusawal Road, N.H.No.6, Jalgaon",Nashik,Jalgaon,Un-Aided,Non-Autonomous,Non-Minority
05172,"R. C. Patel Institute of Technology, Shirpur","Near Nimzari Naka, Shirpur Dist. Dhule",Nashik,Dhule,Un-Aided,Autonomous,Linguistic Minority - Gujarathi
05173,"SNJB's Late Sau. Kantabai Bhavarlalji Jain College of Engineering,  (Jain Gurukul), Neminagar,Chandwad,(Nashik)","Jain Gurukul, Neminagar, Chandwad Dist.  Nashik",Nashik,Nashik,Un-Aided,Autonomous,Religious Minority - Jain
05177,"Matoshri College of Engineering and Research Centre, Eklahare, Nashik","At Post Eklahare, Taluka & District Nashik",Nashik,Nashik,Un-Aided,Autonomous,Non-Minority
05179,"Vishwabharati Academy's College of Engineering, Ahmednagar","Sarola Baddi ,Jamkhed Road ,  Ahmednagar",Nashik,Ahmednagar,Un-Aided,Non-Autonomous,Non-Minority
05181,"Gokhale Education Society's, R.H. Sapat College of Engineering, Management Studies and Research, Nashik","Vidyanagar, College Road, Nashik 422 005",Nashik,Nashik,Un-Aided,Non-Autonomous,Non-Minority
05182,"Kalyani Charitable Trust, Late Gambhirrao Natuba Sapkal College of Engineering, Anjaneri, Trimbakeshwar Road, Nashik","Sapkal Knowldege Hub,Kalyani Hills, Anjaneri- Wadholi, Tal. Trimbak, Nashik",Nashik,Nashik,Un-Aided,Non-Autonomous,Non-Minority
05184,"Amruta Vaishnavi Education & Welfare Trust's Shatabdi Institute of Engineering & Research, Agaskhind Tal. Sinnar","At- Agaskhind, Post Shenit (Via Deolali Camp-Bhagur), Tal. Sinnar  Dist. Nashik",Nashik,Nashik,Un-Aided,Non-Autonomous,Religious Minority - Christian
05244,"MET's Institute of Technology Polytechnic, Bhujbal Knowledge City, Adgaon Nashik","Bhujbal Knowledge City, Adgaon ,Nashik 422003",Nashik,Nashik,Un-Aided,Non-Autonomous,Non-Minority
05249,"Trimurti Shikshan Prasarak Mandal, Trimurti Institute Of Technology, Paladhi Bk, Jalgaon","Survey No.227/2, Paldhi Bk, Next To North Maharashtra University, Tal-Dhamangaon, Dist:Jalgaon",Nashik,Jalgaon,Un-Aided,Non-Autonomous,Non-Minority
05256,"Matoshri Education Soceity, Matoshri Asarabai Polytechnic,Nashik","Gut No.39/1 Eklahare, Nashik",Nashik,Nashik,Un-Aided,Non-Autonomous,Non-Minority
05263,"Matoshri Education Soceity, Matoshri Institute Of Technology, Dhanore, Nashik","Dhanore Tal.Yeola, Dist.Nashik  423401",Nashik,Nashik,Un-Aided,Non-Autonomous,Non-Minority
05303,"Hon. Shri. Babanrao Pachpute Vichardhara Trust, Group of Institutions (Integrated Campus)-Parikrama, Kashti Shrigondha,","At/Post Kashti, Tal Shrigonda, Dist. Ahmednagar",Nashik,Ahmednagar,Un-Aided,Non-Autonomous,Non-Minority
05322,"Jamia Institute Of Engineering And Management Studies, Akkalkuwa","Molgi Road Near Amlibari Fata Akkalkuwa, Nandurbar",Nashik,Nandurbar,Un-Aided,Non-Autonomous,Religious Minority - Muslim
05330,"PUNE VIDYARTHI GRIHAS COLLEGE OF ENGINEERING & SHRIKRUSHNA S. DHAMANKAR INSTITUTE OF MANAGEMENT, NASHIK","206, Dindori Road, Near Meri, Mhasrul, Nashik",Nashik,Nashik,Un-Aided,Non-Autonomous,Non-Minority
05331,"Sandip Foundation's, Sandip Institute of Engineering & Management, Nashik","Trimbak Road, Mahiravani Nashik",Nashik,Nashik,Un-Aided,Non-Autonomous,Non-Minority
05365,"Vardhaman Education & Welfare Society, Ahinsa Institute of Technology, Post. Dondaicha,  Dhule","Srv. No. 190/1A /1, 190/1A/2, Dhule Road, Post. Dondaicha, Dist.Dhule , 425408",Nashik,Dhule,Un-Aided,Non-Autonomous,Religious Minority - Jain
05370,"Kedareshwar Gramin Vikas Pratishthan, Samajbhushan Eknathrao Dhakane  College, of Engineering, Shevgaon","Gut No. 147/2, At Post-Rakshi Ahmednagar , 414502",Nashik,Ahmednagar,Un-Aided,Non-Autonomous,Non-Minority
05380,"Adsul's Technical Campus, Chas Dist. Ahmednagar","At Post Chas, Tal.& Dist. Ahmednagar",Nashik,Ahmednagar,Un-Aided,Non-Autonomous,Non-Minority
05381,"Shri. Jaykumar Rawal Institute of Technology, Dondaicha.","At Post Dondaicha, Dist. Dhule",Nashik,Dhule,Un-Aided,Non-Autonomous,Non-Minority
05382,"Ahmednagar Jilha Maratha Vidya Prasarak Samajache, Shri. Chhatrapati Shivaji Maharaj College of Engineering, Nepti","Survey No. 162& 163, Nepti, Nagar Kalyan Road, Ahmednagar",Nashik,Ahmednagar,Un-Aided,Non-Autonomous,Non-Minority
05390,"K.V.N. Naik S. P. Sansth's Loknete Gopinathji Munde Institute of Engineering Education & Research, Nashik.","Canada Corner, Sharanpur Road, Nashik",Nashik,Nashik,Un-Aided,Non-Autonomous,Non-Minority
05396,"College of Engineering and Technology ,North Maharashtra Knowledge City, Jalgaon","Gat No 166 Bambhori, Jalgaon",Nashik,Jalgaon,Un-Aided,Non-Autonomous,Non-Minority
05399,"Sanghavi College of Engineering, Varvandi, Nashik.","Gut No. 166, Varvandi, Taluka Dindori, Dist. Nashik.",Nashik,Nashik,Un-Aided,Non-Autonomous,Non-Minority
05401,"Jawahar Education Society's Institute of Technology, Management & Research, Nashik.","Survey No.48, Gowardhan, Gangapur Road, Nashik.",Nashik,Nashik,Un-Aided,Non-Autonomous,Non-Minority
05408,"Vidya Niketan College of Engineering, Bota Sangamner","Gat No. 670, Vidya Nagari, Pune Nashik Road, at post Bota, TalSangamner, Dist. Ahmednagar.",Nashik,Ahmednagar,Un-Aided,Non-Autonomous,Non-Minority
05409,"Rajiv Gandhi College of Engineering, At Post Karjule Hariya Tal.Parner, Dist.Ahmednagar","At Post Karjule Harya, Tal. Parner, Dist Ahmednagar",Nashik,Ahmednagar,Un-Aided,Non-Autonomous,Non-Minority
05411,"Maulana Mukhtar Ahmad Nadvi Technical Campus, Malegaon.","Mansoora, Malegaon-Manmad Road, P.B.No.144, Malegaon, Nashik.",Nashik,Nashik,Un-Aided,Non-Autonomous,Religious Minority - Muslim
05418,"Guru Gobind Singh College of Engineering & Research Centre, Nashik.","Khalsa Educational Complex, Guru Gobind Singh Marg, Nashik.",Nashik,Nashik,Un-Aided,Non-Autonomous,Non-Minority
05433,"R.C. Patel College of Engineering and Polytechnic, Shirpur","Survey No. 41/1, Near Balaji Nagar, Opposite to R.C. Patel Educational Complex, Karwand Road, Shirpur.",Nashik,Dhule,Un-Aided,Non-Autonomous,Linguistic Minority - Gujarathi
05449,"Shri Vile Parle Kelavani Mandal's Institute of Technology, Dhule","Survey No. 499/1, Plot No.2, Behind Gurudwara, Mumbai Agra Highway, Dhule",Nashik,Dhule,Un-Aided,Non-Autonomous,Linguistic Minority - Gujarathi
05497,"P.G. College of Engineering & Technology, Nandurbar","P.G. Knowledge City, Sant Bhumi Nagziri, Chaupale, Nandurbar",Nashik,Nandurbar,Un-Aided,Non-Autonomous,Non-Minority
05509,"Shri Swami Samarth Institute of Management and Technology, Malwadi-Bota","At Malwadi ,Post Bota, Taluka Sangamner, District Ahmednagar",Nashik,Ahmednagar,Un-Aided,Non-Autonomous,Non-Minority
05513,"MKD Institute of Technology, Nadurbar","A/p Virchak, Gat No.42, Nandurbar-Navapur-Highway, Taluka District Nandurbar",Nashik,Nandurbar,Un-Aided,Non-Autonomous,Non-Minority
05545,"Shri. Vile Parle Kelwani Mandal's College of Engineering, Shirpur","Survey NO.9/1, 9/2, At Post Dahivad, Behind Textile Park, Ankleshwar Burhanpur Highway, Shirpur, District Dhule.",Nashik,Dhule,Un-Aided,Non-Autonomous,Linguistic Minority - Gujarathi
06004,"Government College of Engineering & Research, Avasari Khurd","Avasari, Tal. Ambegaon. Dist. Pune",Pune,Pune,Government,Non-Autonomous,Non-Minority
06005,"Government College of Engineering, Karad","Vidyanagar, Karad  Dist. Satara",Pune,Satara,Government,Autonomous,Non-Minority
06007,"Walchand College of Engineering, Sangli","Walchand College of Engineering, Vishram Bagh, Sangli",Pune,Sangli,Government-Aided,Autonomous,Non-Minority
06028,"Department of Technology, Shivaji University, Kolhapur","Vidyanagar, Kolhapur",Pune,Kolhapur,University Department,Non-Autonomous,Non-Minority
06036,"Government College of Engineering, Kolhapur","Old Pune Bangalore Road Vidyanagar, Kolhapur",Pune,Kolhapur,Government,Non-Autonomous,Non-Minority
06122,"TSSMS's Pd. Vasantdada Patil Institute of Technology, Bavdhan, Pune","S. V. No. 33/22, Bavdhan(Khurd), Tal-Mulashi Near Chadani Chwok,Tal-Mulashi Dist. Pune",Pune,Pune,Un-Aided,Non-Autonomous,Non-Minority
06138,"Genba Sopanrao Moze Trust Parvatibai Genba Moze College of Engineering,Wagholi, Pune","Gat  No. 2181, Wagholi, Tal Haveli Dist. Pune",Pune,Pune,Un-Aided,Non-Autonomous,Non-Minority
06139,"Progressive Education Society's Modern College of Engineering, Pune","P.E.S. Modern College of Engineering, 1186 A, Shivajinagar, Off. J.M. Road, Pune",Pune,Pune,Un-Aided,Autonomous,Non-Minority
06141,"Jaywant Shikshan Prasarak Mandal's,Rajarshi Shahu College of Engineering, Tathawade, Pune","S. No. 80/3, Mumbai Pune Bypass Highway,  Tathawade,Tal-Munshi, Dist. Pune",Pune,Pune,Un-Aided,Autonomous,Non-Minority
06144,"Genba Sopanrao Moze College of Engineering, Baner-Balewadi, Pune","Survey No. 25/1/3, Infront of Chatrapati Shivaji Sports Stadium, Balewadi, Tal. Haveli, Dist. Pune",Pune,Pune,Un-Aided,Non-Autonomous,Non-Minority
06145,"JSPM'S Jaywantrao Sawant College of Engineering,Pune","S. No. 58, Indrayani Nagar, Handewadi Road, Hadapsar, Pune",Pune,Pune,Un-Aided,Non-Autonomous,Non-Minority
06146,"MIT Academy of Engineering,Alandi, Pune","Alandi (D) Tal. Khed, Dist. Pune",Pune,Pune,Un-Aided,Autonomous,Non-Minority
06149,"Siddhant College of Engineering, A/p Sudumbare, Tal.Maval, Dist-Pune","Chakan Talegaon Road, At Post Sudumbare, Tal. Maval Dist. Pune",Pune,Pune,Un-Aided,Non-Autonomous,Linguistic Minority - Hindi
06155,"G.H.Raisoni College of Engineering & Management, Wagholi, Pune","Gat No. 1200 , Domkhel Road, Wagholi,Tal-Haveli, Dist. Pune",Pune,Pune,Un-Aided,Autonomous,Linguistic Minority - Hindi
06156,"Marathwada Mitra Mandal's College of Engineering, Karvenagar, Pune","Survey No 18, Plot No. 5/3,  CTS No.205, Karvenagar, Pune",Pune,Pune,Un-Aided,Autonomous,Non-Minority
06175,"Pimpri Chinchwad Education Trust, Pimpri Chinchwad College of Engineering, Pune","Sector 26, Pradhikaran,  Nigdi Pradhikaran, Pune",Pune,Pune,Un-Aided,Autonomous,Non-Minority
06177,"Sinhgad College of Engineering, Vadgaon (BK), Pune","44/1, Vadgaon,(bk) off Sinhgad Road Pune",Pune,Pune,Un-Aided,Non-Autonomous,Non-Minority
06178,"Sinhgad Technical Education Society's Smt. Kashibai Navale College of Engineering,Vadgaon,Pune","S. No. 44/1, Vadgaon(bk) off Sinhgad Road, Pune",Pune,Pune,Un-Aided,Non-Autonomous,Non-Minority
06179,"Indira College of Engineering & Management, Pune","Survey No.64,65,Gat No.276, At Post Parandwadi, Near Somatne Phata, Tal- Maval Dist. Pune",Pune,Pune,Un-Aided,Autonomous,Non-Minority
06182,"Sinhgad Technical Education Society, Sinhgad Institute of Technology and Science, Narhe (Ambegaon)","Opp. Wasternly By Pass, Narhe, Ambegaon, Dist. Pune",Pune,Pune,Un-Aided,Non-Autonomous,Non-Minority
06183,"Al-Ameen Educational and Medical Foundation, College of Engineering, Koregaon, Bhima","Sharad Campus Pimpal, Jagtap Road A/P, Koregaon Bhima Tal-Shirur, Pune",Pune,Pune,Un-Aided,Non-Autonomous,Religious Minority - Muslim
06184,"K. J.'s Educational Institut Trinity College of Engineering and Research, Pisoli, Haveli","S.No. 25/27, Pisoli, Tal.Haveli Dist. Pune",Pune,Pune,Un-Aided,Non-Autonomous,Non-Minority
06185,Sinhgad Institute of Technology,"Gat No.309/310/314, Pune-Mumbai Express Highway, kusgaon(BK), Lonavala Pune , 410401",Pune,Pune,Un-Aided,Non-Autonomous,Non-Minority
06187,"Sinhgad Academy of Engineering, Kondhwa (BK)  Kondhwa-Saswad Road, Pune","S.No.40/4A, Kondhwa(BK), Kondhwa-Saswad Road, Pune",Pune,Pune,Un-Aided,Non-Autonomous,Non-Minority
06203,"Marathwada Mitra Mandal's Institute of Technology, Lohgaon, Pune","Survey No.35, Plot No. 5/6, Lohgaon Tal. Haveli Dist. Pune",Pune,Pune,Un-Aided,Non-Autonomous,Non-Minority
06206,"Pune District Education  Association's College of Engineering, Manjari(Bk), Hadapsar, Pune","Hadapsar-Manjari Road, Manjari(BK),Dist. Pune",Pune,Pune,Un-Aided,Non-Autonomous,Non-Minority
06207,"Dr. D. Y. Patil Unitech Society's Dr. D. Y. Patil  Institute of Technology, Pimpri, Pune","Sant Tukaram Nagar, Pimpri, Puneâ€œ",Pune,Pune,Un-Aided,Non-Autonomous,Non-Minority
06214,"K. E. Society's Rajarambapu Institute of Technology, Walwa, Sangli","Rajaramnagar, A/p. Sakhrale, Tal: Walwa   Dist. Sangli",Pune,Sangli,Un-Aided,Autonomous,Non-Minority
06217,"Shri. Balasaheb Mane Shikshan  Prasarak Mandal's, Ashokrao Mane Group of Institutions","NH-4, Pune Banglore highway, AT Wathar Tarf Wadgaon, Taluka-Hathanangle, Dist. Kolhapur",Pune,Kolhapur,Un-Aided,Non-Autonomous,Non-Minority
06219,"KSGBS's Bharat- Ratna Indira Gandhi College of Engineering, Kegaon, Solapur","Gut. No.58, Kegaon, Solapur Pune Highway, Nr Solapur University,Solapur",Pune,Solapur,Un-Aided,Non-Autonomous,Non-Minority
06220,"Shri Vithal Education and Research Institute's College of Engineering, Pandharpur","P.O. Box No. 54, Gopalpur - Ranjani Road,   Gopalpur,  Pandharpur Dist. Solapur",Pune,Solapur,Un-Aided,Autonomous,Non-Minority
06222,"Dattajirao Kadam Technical Education Society's Textile & Engineering Institute, Ichalkaranji.","Post Box No. 130, Rajwada, Ichalkaranji. Dist. Kolhapur",Pune,Kolhapur,Un-Aided,Autonomous,Non-Minority
06223,"Pradnya Niketan Education Society's Nagesh Karajagi Orchid College of Engineering & Technology, Solapur","Post Box No.154,Gut No. 16, Hipparanga, Tuljapur Road, North Solapur",Pune,Solapur,Un-Aided,Autonomous,Non-Minority
06250,"D.Y. Patil College of Engineering and Technology, Kolhapur","Kasaba Bavada,Taluka Karveer,Kolhapur",Pune,Kolhapur,Un-Aided,Autonomous,Non-Minority
06265,"Walchand Institute of Technology, Solapur","Solapur Seth Walchand Hirachand Marg, Ashok Chowk, P.B. No.634, Solapur",Pune,Solapur,Un-Aided,Autonomous,Religious Minority - Jain
06267,"Kolhapur Institute of Technology's College of Engineering(Autonomous), Kolhapur","R.S. No. 199, B/1-3, Gokul_Shirgaon,Tal: Karveer Kolhapur , 416234",Pune,Kolhapur,Un-Aided,Autonomous,Non-Minority
06268,"Tatyasaheb Kore Institute of Engineering and Technology, Warananagar","At & Post - Warananagar Taluka : Panhala Kolhapur , 416113",Pune,Kolhapur,Un-Aided,Autonomous,Non-Minority
06269,"Shetkari Shikshan Mandal's Pad. Vasantraodada Patil Institute of Technology, Budhgaon, Sangli","(PVPIT),  Budhgaon, Tasgaon Rd., Tal : Miraj  Sangli , 416304",Pune,Sangli,Un-Aided,Non-Autonomous,Non-Minority
06270,"Rayat Shikshan Sanstha's Karmaveer Bhaurao Patil College of Engineering, Satara","Rayat Shikshan Sanstha's Karmaveer Bhaurao Patil College of Engineering, Near Circuit House, Sadar Bazar, Camp-Satara",Pune,Satara,Un-Aided,Non-Autonomous,Non-Minority
06271,Pune Institute of Computer Technology,"Sr.No. 27, Pune -Satara Road,Dhankavdi, Pune",Pune,Pune,Un-Aided,Autonomous,Non-Minority
06272,"Dr. D. Y. Patil Pratishthan's D.Y.Patil College of Engineering Akurdi, Pune","Sector-29,Nigdi Pradhikaran, Akurdi, Pune",Pune,Pune,Un-Aided,Autonomous,Non-Minority
06273,"Bansilal Ramnath Agarawal Charitable Trust's Vishwakarma Institute of Technology, Bibwewadi, Pune","666, Upper Indira Nagar, Bibwewadi, Pune",Pune,Pune,Un-Aided,Autonomous,Non-Minority
06274,"Pune Vidyarthi Griha's College of Engineering and Technology and G K Pate(Wani) Institute of  Management,  Pune","44, Vidyanagari, Parvati, Shivdarshan Chowk, Near Muktangan English School, Pune",Pune,Pune,Un-Aided,Non-Autonomous,Non-Minority
06275,"Shivnagar Vidya Prasarak Mandal's College of Engineering, Malegaon-Baramati","Malegaon BK, Tal: Baramati Dist. Pune",Pune,Pune,Un-Aided,Non-Autonomous,Non-Minority
06276,"MKSSS's Cummins College of Engineering for Women, Karvenagar,Pune","Karvenagar, Pune",Pune,Pune,Un-Aided,Autonomous,Non-Minority
06277,"Dr. J. J. Magdum  Charitable Trust's Dr. J.J. Magdum College of Engineering, Jaysingpur","Gat no. 314/330, Shirol wadi road, Jaisingpur Dist. Kolhapur",Pune,Kolhapur,Un-Aided,Autonomous,Non-Minority
06278,"All India Shri Shivaji Memorial Society's College of Engineering, Pune","Kennedy Road, Near R.T.O., Pune",Pune,Pune,Un-Aided,Non-Autonomous,Non-Minority
06281,"Modern Education Society's Wadia College of Engineering, Pune","Wadia College Campus 19, Late Prin. V. K. Jog Path, Pune",Pune,Pune,Un-Aided,Non-Autonomous,Non-Minority
06282,"All India Shri Shivaji Memorial Society's Institute of Information Technology,Pune","Kennedy Road, Near RTO, Pune",Pune,Pune,Un-Aided,Autonomous,Non-Minority
06283,"Annasaheb Dange College of Engineering and Technology, Ashta, Sangli",At  Post : Ashta. Tal- Walwa Dist. Sangli,Pune,Sangli,Un-Aided,Autonomous,Non-Minority
06284,"Vidya Pratishthan's Kamalnayan Bajaj Institute of Engineering & Technology, Baramati Dist.Pune","Vidyanagari, Bhigwan Road, Baramati Dist. Pune",Pune,Pune,Un-Aided,Autonomous,Non-Minority
06285,"Bharati Vidyapeeth's College of Engineering for Women, Katraj, Dhankawadi, Pune","Katraj,Dhankawadi campus, Pune-Satara Road, Pune",Pune,Pune,Un-Aided,Non-Autonomous,Non-Minority
06288,"Bharati Vidyapeeth's College of Engineering, Kolhapur","Near Chitranagari, Kolhapur",Pune,Kolhapur,Un-Aided,Non-Autonomous,Non-Minority
06293,"Kai Amdar  Bramhadevdada Mane Shikshan & Samajik Prathistan's Bramhadevdada Mane Institute of Technology, Solapur","Gat No.137, Solapur-Manglwedha-Kolhapur Highway,Taluka: North Solapur, Belati  Solapur",Pune,Solapur,Un-Aided,Non-Autonomous,Non-Minority
06298,"Zeal Education Society's Zeal College of Engineering & Reserch, Narhe, Pune","Survey No.39, Narhe-Dhayari Road, Narhe Pune-411 041",Pune,Pune,Un-Aided,Autonomous,Non-Minority
06303,"Dr. Ashok Gujar Technical Institute's  Dr. Daulatrao Aher College of Engineering, Karad","Vidyanagar Extn. At Post Banawadi, Taluka - Karad Dist.  Satara",Pune,Satara,Un-Aided,Non-Autonomous,Non-Minority
06304,"Loknete Hanumantrao Charitable Trust's Adarsh Institute of Technology and Research Centre, Vita,Sangli","Post Khamla(Bha.), Vita, Gat No.421,Tal- Khanapur Dist . Sangli",Pune,Sangli,Un-Aided,Non-Autonomous,Non-Minority
06305,"Late Narayandas Bhawandas Chhabada Institute of Engineering & Technology, Satara","Survey No. 259 At Post. Raigoan Taluka. Javali, District : Satara",Pune,Satara,Un-Aided,Non-Autonomous,Non-Minority
06307,"Dhole Patil Education Society, Dhole Patil College of Engineering, Wagholi, Tal. Haveli","1284, Ubale Nagar, Wagholi, Taluka Haveli Dist. Pune",Pune,Pune,Un-Aided,Non-Autonomous,Non-Minority
06308,"Shanti Education Society, A.G. Patil Institute of Technology, Soregaon, Solapur(North)","18(2 A/2) Pratap Nagar , Bijapur Road, Solapur",Pune,Solapur,Un-Aided,Non-Autonomous,Non-Minority
06310,"Nutan Maharashtra Vidya Prasarak Mandal, Nutan Maharashtra Institute of Engineering &Technology, Talegaon station, Pune","Vishnupuri Talegaon Station, Taluka Mavel, Dist. Pune",Pune,Pune,Un-Aided,Non-Autonomous,Non-Minority
06311,"Jayawant Shikshan Prasarak Mandal, Bhivarabai Sawant Institute of Technology & Research, Wagholi","Gut No. 720/1 & 2, Pune Nagar Road, Wagholi, Tal. Hawali Dist. Pune",Pune,Pune,Un-Aided,Non-Autonomous,Non-Minority
06313,"Jaywant College of Engineering & Polytechnic , Kille Macchindragad Tal. Walva District- Sangali","GAT No 329/1, Kille Macchindragad,  Tal. Walwa Dist. Sangli",Pune,Sangli,Un-Aided,Non-Autonomous,Non-Minority
06315,Sanjeevan Group of Institutions,"Sanjeevan Knowladge City, Somwarpeth (Injole), Panhala, Tal. Panhala. Dist. Kolhapur",Pune,Kolhapur,Un-Aided,Non-Autonomous,Non-Minority
06317,"Sharad Institute of Technology College of Engineering, Yadrav(Ichalkaranji)","Gat No.525 & 473/A, Yadrav, Tal. Shirol, Dist: Kolhapur",Pune,Kolhapur,Un-Aided,Autonomous,Non-Minority
06318,"Abhinav Education Society's College of Engineering and Technology (Degree), Wadwadi","S. No 209, At Post - Wadwadi, Tal - Khandala, Dist - Satara",Pune,Satara,Un-Aided,Non-Autonomous,Non-Minority
06319,"Shahajirao Patil Vikas Pratishthan, S.B.Patil College of Engineering, Vangali, Tal. Indapur","Gut No. 58, Village Vangali, Tal. Indapur Dist. Pune",Pune,Pune,Un-Aided,Non-Autonomous,Non-Minority
06320,"K.J.'s Educational Institute's K.J.College of Engineering & Management Research, Pisoli","Survey No. 25/27, Post Yevalewadi, Village Pisoli, Near Bopdev Ghat, Near Hotel Garwa, Tal. Haveli. Dist. Pune",Pune,Pune,Un-Aided,Non-Autonomous,Non-Minority
06321,"Vidya Vikas Pratishthan Institute of Engineering and Technology, Solapur","72/2 B, Pratap Nagar, Soregaon-Dongaon Road, Solapur",Pune,Solapur,Un-Aided,Non-Autonomous,Non-Minority
06322,"Shree Gajanan Maharaj Shikshan Prasarak Manda'l Sharadchandra Pawar College of Engineering, Dumbarwadi","At Dumberwadi, Post Khamundi(Otur), Tal. Junnar Dist. Pune",Pune,Pune,Un-Aided,Non-Autonomous,Non-Minority
06324,"Rajgad Dnyanpeeth's Shri Chhatrapati Shivajiraje College of Engineering, Bhor","S.No. 237, Dhangwadi, Tal. Bhor. Dist.  Pune",Pune,Pune,Un-Aided,Non-Autonomous,Non-Minority
06325,"Alard  Charitable Trust's Alard College of Engineering and Management, Pune","Sr. No. 50, Marunji, Tal-Mulshi, Nr. Rajiv Gandhi IT Park, Hinjewadi, Dist. Pune",Pune,Pune,Un-Aided,Non-Autonomous,Linguistic Minority - Hindi
06326,Karmayogi Institute of Technology,"Gat No. 124 And 125, Ap. Shelve, Tal. Pandharpur, Dist. Solapur ??????",Pune,Solapur,Un-Aided,Non-Autonomous,Non-Minority
06402,"NEW INSTITUTE OF TECHNOLOGY,KOLHAPUR","R. S. No. 264, Shantinagar, Uchagaon, Kolhapur , 416005",Pune,Kolhapur,Un-Aided,Non-Autonomous,Non-Minority
06444,"Shriram Institute Of Engineering & Technology, (Poly), Paniv","Paniv, Taluka Malshiras, Dist. Solapur 413113",Pune,Solapur,Un-Aided,Non-Autonomous,Non-Minority
06466,"Shree Santkrupa Shikshan Sanstha, Shree Santkrupa Institute Of Engineering & Technology, Karad","Gat No.716,Ghogaon,(Shivajinagar),Tal.Karad Satara , 415111",Pune,Satara,Un-Aided,Non-Autonomous,Non-Minority
06468,"Swami Vivekananda Shikshan Sanstha, Dr. Bapuji Salunkhe Institute Of Engineering & Technology,Kolhapur","2130, E Ward, Kolhapur  416003",Pune,Kolhapur,Un-Aided,Non-Autonomous,Non-Minority
06545,"Samarth Education Trust's Arvind Gavali College Of Engineering Panwalewadi, Varye,Satara.","Gat. No-247,A/P-Panwalewadi Post Varye,Tal-Satara 415015",Pune,Satara,Un-Aided,Non-Autonomous,Non-Minority
06609,"Jaihind College Of Engineering,Kuran","G. No. 441, Kuran, Tal: Junnar, Pune 410511",Pune,Pune,Un-Aided,Non-Autonomous,Non-Minority
06622,ISBM College Of Engineering Pune,"Survey No.44/1, 44/1/2, Nande Village Taluka Mulshi , Pune  411042",Pune,Pune,Un-Aided,Non-Autonomous,Linguistic Minority - Hindi
06625,"Universal College of Engineering & Research, Sasewadi","Gat No. 430, Sasewadi, Pune",Pune,Pune,Un-Aided,Non-Autonomous,Non-Minority
06628,"Dattakala Group Of Institutions, Swami - Chincholi Tal. Daund Dist. Pune","Gat No. 541/2, 527 off.Pune-Solapur Highway No. 9, A/P-Swami-Chincholi, Tahsil - Daund, Pune , 413130",Pune,Pune,Un-Aided,Non-Autonomous,Non-Minority
06632,Navsahyadri Education Society's Group of Institutions,"Gat. N0. 69,70,71, Mouje : Naigaon, Tal. Bhor,  Pune , 412205",Pune,Pune,Un-Aided,Non-Autonomous,Non-Minority
06634,"KJEI's Trinity Academy of Engineering, Yewalewadi, Pune","Svy.NO.25&27,At pisoli,Post Yevalewadi,Tal-Haveli,Bopdeo Ghat,Pune  411048",Pune,Pune,Un-Aided,Non-Autonomous,Non-Minority
06635,Samarth College of Engineering and Management,"Gat No. 28/1, At Bangarwadi, Post Belhe, Tal. Junnar Pune , 412410",Pune,Pune,Un-Aided,Non-Autonomous,Non-Minority
06640,"N. B. Navale Sinhgad College of Engineering, Kegaon, solapur","At Post Kegaon , Solapur - Pune National Highway, Dist Solapur  413256",Pune,Solapur,Un-Aided,Non-Autonomous,Non-Minority
06643,"S K N Sinhgad College of Engineering, Korti Tal. Pandharpur Dist Solapur","At Post Korti,Pandharpur - Karad road,  Tal-Pandharpur, Dist-Solapur",Pune,Solapur,Un-Aided,Non-Autonomous,Non-Minority
06644,"Shri. Ambabai Talim Sanstha's Sanjay Bhokare Group of Institutes, Miraj","Tilaknagar Miraj-Sangli Road Miraj Sangli , 416414",Pune,Sangli,Un-Aided,Non-Autonomous,Non-Minority
06649,"TSSM's Bhivarabai Sawant College of Engineering and Research, Narhe, Pune","S.No. 12/1/2 and 12/2/2, Narhe, Taluka Haveli, Pune  411048",Pune,Pune,Un-Aided,Non-Autonomous,Non-Minority
06714,"APPASAHEB ALIAS SA.RE.PATIL INSTITUTE OF TECHNOLOGY, Dattanagar  Tal-Shirol, Dist Kolhapur","Gat No. 251 & 133/2, Dattanagar, Tal-Shirol, Dist Kolhapur 416120",Pune,Kolhapur,Un-Aided,Non-Autonomous,Non-Minority
06732,"Ajeenkya DY Patil School of Engineering, Lohegaon, Pune","Dr. D. Y. Patil Knowledge City, S. No. 136, Charholi (Bk), Via Lohegaon, Tal.- Haveli, Pune",Pune,Pune,Un-Aided,Non-Autonomous,Non-Minority
06754,"International Institute of Information Technology (IÂ²IT), Pune.","P-14, Rajiv Gandhi Infotech Park, Hinjawadi, Pune  411057",Pune,Pune,Un-Aided,Non-Autonomous,Non-Minority
06755,"JSPM Narhe Technical Campus, Pune.","S.No.12/2/2, 14/9, Narhe, Pune 411041",Pune,Pune,Un-Aided,Non-Autonomous,Non-Minority
06756,"Fabtech Technical Campus College of Engineering and Research, Sangola","Pandharpur Road, Gat No.565/1, Sangola Tal. Sangola, Dist. Solapur  413307",Pune,Solapur,Un-Aided,Non-Autonomous,Non-Minority
06757,"Yashoda Technical Campus, Wadhe, Satara.","S.No.242/1, At post Wadhe,Tal.& Dist. Satara.  415011",Pune,Satara,Un-Aided,Non-Autonomous,Non-Minority
06758,"Sahyadri Valley College of Engineering & Technology, Rajuri, Pune.","A/P Rajuri, Taluka-Junnar, Dist-Pune. 412411",Pune,Pune,Un-Aided,Non-Autonomous,Non-Minority
06759,"Shree Ramchandra College of Engineering, Lonikand,Pune","Gat No. 351 & 333/1 At post Lonikand, Taluka Haveli, Dist. Pune  412216",Pune,Pune,Un-Aided,Non-Autonomous,Non-Minority
06762,"Nanasaheb Mahadik College of Engineering,Walwa, Sangli.","Gat No. 894 & 2665, Peth Naka NH4, Tal Walwa, Dist. Sangli  415407",Pune,Sangli,Un-Aided,Non-Autonomous,Non-Minority
06766,Phaltan Education Society's College of Engineering Thakurki Tal- Phaltan Dist-Satara,"Survey No.31(Part), Thakurki, Tal. Phaltan, Dist.Satara.",Pune,Satara,Un-Aided,Non-Autonomous,Non-Minority
06767,"Suman Ramesh Tulsiani Technical Campus Faculty of Engineering, Kamshet,Pune.","Kamshet, Taluka Maval, Dist. Pune 410405",Pune,Pune,Un-Aided,Non-Autonomous,Non-Minority
06768,"P.K. Technical Campus, Pune.","Gat. No.714(Old 1680), Post Kadachiwadi, Post Chakan, Tal. Khed. Dist. Pune  410501",Pune,Pune,Un-Aided,Non-Autonomous,Non-Minority
06769,"Rasiklal M. Dhariwal Sinhgad Technical Institutes Campus, Warje, Pune.","111/1, Warje, Tal.Haveli, Dist. Pune  411058",Pune,Pune,Un-Aided,Non-Autonomous,Non-Minority
06770,"SKN Sinhgad Institute of Technology & Science, Kusgaon(BK),Pune.","Gat No.309, Kusgaon Budruk, Opp. Pune Mumbai Express Highway, Kusgaon, Lonavala, Pune.  410401",Pune,Pune,Un-Aided,Non-Autonomous,Non-Minority
06771,"Flora Institute of Technology, Khopi, Near Khed Shivapur Toll Plaza, Pune","49/1, Khopi, Nr. Khed-Shivapur Toll Plaza, Off Pune-Banglore Highway, Taluka-Bhor,Dist.Pune , 412205",Pune,Pune,Un-Aided,Non-Autonomous,Non-Minority
06772,"NBN Sinhgad Technical Institutes Campus, Pune","10/1, Ambegaon Budruk, Tal.Haveli, Dist.Pune. 411041",Pune,Pune,Un-Aided,Non-Autonomous,Non-Minority
06780,"D.Y.Patil Education Society's,D.Y.Patil Technical Campus, Faculty of Engineering & Faculty of Management,Talsande,Kolhapur.","G.No. 85, Talasande, Tal- Hatkangle, Kolhapur  416112",Pune,Kolhapur,Un-Aided,Autonomous,Non-Minority
06781,"Bhagwant Institute of Technology, Barshi","Gat No. 1242/2, Tadsoundane Road, Barshi. Solapur.413401",Pune,Solapur,Un-Aided,Non-Autonomous,Non-Minority
06782,"Sahakar Maharshee Shankarrao Mohite Patil Institute of Technology & Research, Akluj","At Shankar Nagar, Akluj, Post Yashwant Nagar, Dist. Solapur",Pune,Solapur,Un-Aided,Non-Autonomous,Non-Minority
06794,"Anantrao Pawar College of Engineering & Research, Pune","S.No.103, Parvati Ramana Shahu College Road, Pune.",Pune,Pune,Un-Aided,Non-Autonomous,Non-Minority
06795,"Shri.Someshwar Shikshan Prasarak Mandal, Sharadchandra Pawar College of Engineering & Technology, Someshwar Nagar","Gat No. 53, Waghalwadi, Post Someshwar nagar, Tal. Baramati, Dist. Pune.",Pune,Pune,Un-Aided,Non-Autonomous,Non-Minority
06796,"Bharati Vidyapeeth's College of Engineering,Lavale, Pune","At Post Lavale, Pune-412115",Pune,Pune,Un-Aided,Non-Autonomous,Non-Minority
06797,"Dnyanshree Institute Engineering and Technology, Satara","A/p Sonvadi-Gajvadi, Sajjangad Road, Tal Satara, Dist. Satara.",Pune,Satara,Un-Aided,Non-Autonomous,Non-Minority
06799,"Shivganga Charitable Trust, Sangli Vishveshwarya Technical Campus, Faculty of Diploma Engineering, Patgaon, Miraj","Patgaon, Miraj- Pandharpur Road, Miraj Dist.Sangli.",Pune,Sangli,Un-Aided,Non-Autonomous,Non-Minority
06803,"Sant Gajanan Maharaj College of Engineering, Gadhinglaj","Site Chinchewadi, Tal.GAdhinglaj, Dist. Kolhapur.",Pune,Kolhapur,Un-Aided,Non-Autonomous,Non-Minority
06808,"Keystone School of Engineering, Pune","Sr.No.305/7, 306, 307/5 & 308/21 Urli Devachi, Pune",Pune,Pune,Un-Aided,Non-Autonomous,Non-Minority
06811,Sanjay Ghodawat Institute,"AT post Atigre, Gat No 582, Tq-Hatkanangale, Dist- Kolhapur",Pune,Kolhapur,Un-Aided,Non-Autonomous,Non-Minority
06815,"Vidya Prasarini Sabha's College of Engineering & Technology, Lonavala","Gat No. 685, Mouje-Waksai, Tah- Maval, Dist Pune.",Pune,Pune,Un-Aided,Non-Autonomous,Non-Minority
06822,"Pimpri Chinchwad Education Trust's Pimpri Chinchwad College Of Engineering And Research, Ravet","Survey No.10, Laxmi Nagar, Ravet Plot No. B of 110(z), 110(s), Haveli, Pune",Pune,Pune,Un-Aided,Non-Autonomous,Non-Minority
06834,"Dr.D.Y.Patil College Of Engineering & Innovation,Talegaon","Sr.No.27/A/1/2k, Near Talegaon Railway Station, A/P Varale, Talegaon, Tal-Maval,Dist Pune",Pune,Pune,Un-Aided,Non-Autonomous,Non-Minority
06839,"Dr. D Y Patil Pratishthan's College of Engineering, Kolhapur","R.S.No.865, A-Ward Salunke Nagar, Kolhapur",Pune,Kolhapur,Un-Aided,Non-Autonomous,Non-Minority
06878,"Dr. A. D. Shinde College Of Engineering, Tal.Gadhinglaj, Kolhapur","At Post Gudai, Bhadagaon, Tal.Gadhinglaj, Kolhapur",Pune,Kolhapur,Un-Aided,Non-Autonomous,Non-Minority
06901,"MAEER's MIT College of Railway Engineering and Research, Jamgaon, Barshi","Latur Road, MIDC Jamgaon, Tal. Barshi, Dist. Solapur",Pune,Solapur,Un-Aided,Non-Autonomous,Non-Minority
06938,Shree Siddheshwar Women's College Of Engineering Solapur.,T.P.S. Ii F. Plot No. 74 Bhavani Peth Rupa Bhavani Mandir Road Solapur.,Pune,Solapur,Un-Aided,Non-Autonomous,Non-Minority
06991,"Dr. D.Y. Patil Technical Campus, Varale, Talegaon, Pune","S.No. 32/1/A/7, Varale, Talegaon, Pune",Pune,Pune,Un-Aided,Non-Autonomous,Non-Minority
